{
  "type": "FeatureCollection",
  "features": [
    {
      "type": "Feature",
      "properties": {
        "norad_id": 36744,
        "name": "COMS 1",
        "group": "weather",
        "lat": -2.6913142478812864,
        "lon": -64.00786790967922,
        "alt_km": 35782.523883191345,
        "timestamp": "2025-12-13T05:42:57.139274+00:00",
        "meta_object_name": "COMS 1",
        "meta_object_id": "2010-032A",
        "meta_epoch": "2025-12-11T15:50:01.719168",
        "meta_mean_motion": 1.00270393,
        "meta_eccentricity": 0.00010766,
        "meta_inclination": 4.3389,
        "meta_ra_of_asc_node": 78.0101,
        "meta_arg_of_pericenter": 214.1904,
        "meta_mean_anomaly": 154.095,
        "meta_ephemeris_type": 0,
        "meta_classification_type": "U",
        "meta_norad_cat_id": 36744,
        "meta_element_set_no": 999,
        "meta_rev_at_epoch": 4921,
        "meta_bstar": 0,
        "meta_mean_motion_dot": -3.37e-06,
        "meta_mean_motion_ddot": 0,
        "tle_line1": "1 36744U 10032A   25345.65974212 -.00000337  00000+0  00000+0 0  9997",
        "tle_line2": "2 36744   4.3389  78.0101 0001076 214.1904 154.0950  1.00270393 49210"
      },
      "geometry": {
        "type": "Point",
        "coordinates": [
          -64.00786790967922,
          -2.6913142478812864
        ]
      }
    },
    {
      "type": "Feature",
      "properties": {
        "norad_id": 37214,
        "name": "FENGYUN 3B",
        "group": "weather",
        "lat": 51.199852362291445,
        "lon": 15.862164534193376,
        "alt_km": 829.2586179323016,
        "timestamp": "2025-12-13T05:42:57.139290+00:00",
        "meta_object_name": "FENGYUN 3B",
        "meta_object_id": "2010-059A",
        "meta_epoch": "2025-12-12T07:39:09.168768",
        "meta_mean_motion": 14.14790428,
        "meta_eccentricity": 0.00220806,
        "meta_inclination": 98.9907,
        "meta_ra_of_asc_node": 26.2927,
        "meta_arg_of_pericenter": 358.9437,
        "meta_mean_anomaly": 53.3647,
        "meta_ephemeris_type": 0,
        "meta_classification_type": "U",
        "meta_norad_cat_id": 37214,
        "meta_element_set_no": 999,
        "meta_rev_at_epoch": 78100,
        "meta_bstar": 0.00019991125,
        "meta_mean_motion_dot": 3.41e-06,
        "meta_mean_motion_ddot": 0,
        "tle_line1": "1 37214U 10059A   25346.31885612  .00000341  00000+0  19991-3 0  9995",
        "tle_line2": "2 37214  98.9907  26.2927 0022080 358.9437  53.3647 14.14790428781004"
      },
      "geometry": {
        "type": "Point",
        "coordinates": [
          15.862164534193376,
          51.199852362291445
        ]
      }
    },
    {
      "type": "Feature",
      "properties": {
        "norad_id": 37849,
        "name": "SUOMI NPP",
        "group": "weather",
        "lat": -77.6158470015784,
        "lon": 59.85544139871552,
        "alt_km": 835.5862903597372,
        "timestamp": "2025-12-13T05:42:57.139305+00:00",
        "meta_object_name": "SUOMI NPP",
        "meta_object_id": "2011-061A",
        "meta_epoch": "2025-12-12T06:29:50.706528",
        "meta_mean_motion": 14.19514007,
        "meta_eccentricity": 0.00022297,
        "meta_inclination": 98.7773,
        "meta_ra_of_asc_node": 283.6165,
        "meta_arg_of_pericenter": 121.169,
        "meta_mean_anomaly": 238.9705,
        "meta_ephemeris_type": 0,
        "meta_classification_type": "U",
        "meta_norad_cat_id": 37849,
        "meta_element_set_no": 999,
        "meta_rev_at_epoch": 73192,
        "meta_bstar": 0.00010322268,
        "meta_mean_motion_dot": 1.73e-06,
        "meta_mean_motion_ddot": 0,
        "tle_line1": "1 37849U 11061A   25346.27072577  .00000173  00000+0  10322-3 0  9998",
        "tle_line2": "2 37849  98.7773 283.6165 0002229 121.1690 238.9705 14.19514007731928"
      },
      "geometry": {
        "type": "Point",
        "coordinates": [
          59.85544139871552,
          -77.6158470015784
        ]
      }
    },
    {
      "type": "Feature",
      "properties": {
        "norad_id": 38552,
        "name": "METEOSAT-10 (MSG-3)",
        "group": "weather",
        "lat": 4.0568825339785235,
        "lon": 168.12991089542555,
        "alt_km": 35787.426660247525,
        "timestamp": "2025-12-13T05:42:57.139320+00:00",
        "meta_object_name": "METEOSAT-10 (MSG-3)",
        "meta_object_id": "2012-035B",
        "meta_epoch": "2025-12-12T01:29:48.413760",
        "meta_mean_motion": 1.00274807,
        "meta_eccentricity": 8.061e-05,
        "meta_inclination": 4.2276,
        "meta_ra_of_asc_node": 61.7269,
        "meta_arg_of_pericenter": 251.351,
        "meta_mean_anomaly": 150.5582,
        "meta_ephemeris_type": 0,
        "meta_classification_type": "U",
        "meta_norad_cat_id": 38552,
        "meta_element_set_no": 999,
        "meta_rev_at_epoch": 4898,
        "meta_bstar": 0,
        "meta_mean_motion_dot": 3e-08,
        "meta_mean_motion_ddot": 0,
        "tle_line1": "1 38552U 12035B   25346.06236590  .00000003  00000+0  00000+0 0  9996",
        "tle_line2": "2 38552   4.2276  61.7269 0000806 251.3510 150.5582  1.00274807 48982"
      },
      "geometry": {
        "type": "Point",
        "coordinates": [
          168.12991089542555,
          4.0568825339785235
        ]
      }
    },
    {
      "type": "Feature",
      "properties": {
        "norad_id": 38771,
        "name": "METOP-B",
        "group": "weather",
        "lat": 61.87431743971325,
        "lon": -126.20534425422868,
        "alt_km": 812.6587613882921,
        "timestamp": "2025-12-13T05:42:57.139335+00:00",
        "meta_object_name": "METOP-B",
        "meta_object_id": "2012-049A",
        "meta_epoch": "2025-12-12T05:30:59.057280",
        "meta_mean_motion": 14.21408076,
        "meta_eccentricity": 0.00028912,
        "meta_inclination": 98.6801,
        "meta_ra_of_asc_node": 36.1973,
        "meta_arg_of_pericenter": 145.2565,
        "meta_mean_anomaly": 214.8801,
        "meta_ephemeris_type": 0,
        "meta_classification_type": "U",
        "meta_norad_cat_id": 38771,
        "meta_element_set_no": 999,
        "meta_rev_at_epoch": 68670,
        "meta_bstar": 0.00012063887,
        "meta_mean_motion_dot": 2.2e-06,
        "meta_mean_motion_ddot": 0,
        "tle_line1": "1 38771U 12049A   25346.22985020  .00000220  00000+0  12064-3 0  9999",
        "tle_line2": "2 38771  98.6801  36.1973 0002891 145.2565 214.8801 14.21408076686701"
      },
      "geometry": {
        "type": "Point",
        "coordinates": [
          -126.20534425422868,
          61.87431743971325
        ]
      }
    },
    {
      "type": "Feature",
      "properties": {
        "norad_id": 39216,
        "name": "INSAT-3D",
        "group": "weather",
        "lat": -0.788741224097053,
        "lon": -62.5589001728503,
        "alt_km": 35782.55732890967,
        "timestamp": "2025-12-13T05:42:57.139350+00:00",
        "meta_object_name": "INSAT-3D",
        "meta_object_id": "2013-038B",
        "meta_epoch": "2025-12-11T19:15:49.511232",
        "meta_mean_motion": 1.00270347,
        "meta_eccentricity": 0.0001504,
        "meta_inclination": 1.4427,
        "meta_ra_of_asc_node": 85.0027,
        "meta_arg_of_pericenter": 164.0419,
        "meta_mean_anomaly": 250.209,
        "meta_ephemeris_type": 0,
        "meta_classification_type": "U",
        "meta_norad_cat_id": 39216,
        "meta_element_set_no": 999,
        "meta_rev_at_epoch": 4520,
        "meta_bstar": 0,
        "meta_mean_motion_dot": -3.31e-06,
        "meta_mean_motion_ddot": 0,
        "tle_line1": "1 39216U 13038B   25345.80265638 -.00000331  00000+0  00000+0 0  9999",
        "tle_line2": "2 39216   1.4427  85.0027 0001504 164.0419 250.2090  1.00270347 45201"
      },
      "geometry": {
        "type": "Point",
        "coordinates": [
          -62.5589001728503,
          -0.788741224097053
        ]
      }
    },
    {
      "type": "Feature",
      "properties": {
        "norad_id": 39260,
        "name": "FENGYUN 3C",
        "group": "weather",
        "lat": -6.404571452878924,
        "lon": -34.14773508031724,
        "alt_km": 853.269882786748,
        "timestamp": "2025-12-13T05:42:57.139364+00:00",
        "meta_object_name": "FENGYUN 3C",
        "meta_object_id": "2013-052A",
        "meta_epoch": "2025-12-12T05:59:56.781600",
        "meta_mean_motion": 14.15696054,
        "meta_eccentricity": 0.00142654,
        "meta_inclination": 98.4762,
        "meta_ra_of_asc_node": 323.9533,
        "meta_arg_of_pericenter": 197.4732,
        "meta_mean_anomaly": 162.5954,
        "meta_ephemeris_type": 0,
        "meta_classification_type": "U",
        "meta_norad_cat_id": 39260,
        "meta_element_set_no": 999,
        "meta_rev_at_epoch": 63211,
        "meta_bstar": 0.00011597189,
        "meta_mean_motion_dot": 1.86e-06,
        "meta_mean_motion_ddot": 0,
        "tle_line1": "1 39260U 13052A   25346.24996275  .00000186  00000+0  11597-3 0  9995",
        "tle_line2": "2 39260  98.4762 323.9533 0014265 197.4732 162.5954 14.15696054632113"
      },
      "geometry": {
        "type": "Point",
        "coordinates": [
          -34.14773508031724,
          -6.404571452878924
        ]
      }
    }
  ]
}